     2.11           N: GPS NAV DATA                         RINEX VERSION / TYPE
teqc  2019Feb25                         20221121 12:25:41UTCPGM / RUN BY / DATE
OSX ker:10.11.6|Core i5|gcc 4.3 -m64|OSX ker:10.10+|=+      COMMENT
    4.6566D-09  1.4901D-08 -5.9605D-08 -5.9605D-08          ION ALPHA
    7.9872D+04  6.5536D+04 -6.5536D+04 -3.9322D+05          ION BETA
    0.000000000000D+00-2.664535259100D-15   503808     1542 DELTA-UTC: A0,A1,T,W
                                                            END OF HEADER
15 09  7 30  0  0  0.0-3.114435821772D-04-2.160049916711D-12 0.000000000000D+00
    7.900000000000D+01-2.562500000000D+00 4.565547316229D-09-3.080621882415D+00
   -1.396983861923D-07 1.513477298431D-03 3.198161721230D-06 5.153641530991D+03
    3.456000000000D+05 8.195638656616D-08 5.544648251484D-01 3.539025783539D-08
    9.562403962793D-01 3.147187500000D+02-4.849363752722D-01-8.284273644678D-09
   -5.821671067396D-11 1.000000000000D+00 1.542000000000D+03 0.000000000000D+00
    2.000000000000D+00 0.000000000000D+00-9.778887033463D-09 7.900000000000D+01
    3.384180000000D+05 4.000000000000D+00
19 09  7 30  0  0  0.0 1.719780266285D-05-1.477928890381D-12 0.000000000000D+00
    8.000000000000D+01-7.968750000000D+00 4.917347684412D-09 2.911523039730D+00
   -3.147870302200D-07 5.776710808277D-03 7.739290595055D-06 5.153631181717D+03
    3.456000000000D+05-1.378357410431D-07-2.498203764900D+00 1.061707735062D-07
    9.575892623393D-01 2.286562500000D+02-3.088504851595D-01-7.944259481724D-09
   -6.321691895271D-11 1.000000000000D+00 1.542000000000D+03 0.000000000000D+00
    2.000000000000D+00 0.000000000000D+00-1.443549990654D-08 8.000000000000D+01
    3.384180000000D+05 4.000000000000D+00
 8 09  7 30  0  0  0.0-2.142135053873D-04-1.705302565824D-12 0.000000000000D+00
    8.000000000000D+00-7.590625000000D+01 3.738370003830D-09 9.189657848993D-02
   -3.870576620102D-06 1.078390365001D-02 7.528811693192D-06 5.153636161804D+03
    3.456000000000D+05 1.452863216400D-07 1.678997730001D+00-1.303851604462D-08
    9.892098606527D-01 2.478437500000D+02 3.002545530519D+00-7.853898574972D-09
    2.357241045694D-10 1.000000000000D+00 1.542000000000D+03 0.000000000000D+00
    2.000000000000D+00 0.000000000000D+00-3.725290298462D-09 8.000000000000D+00
    3.384180000000D+05 4.000000000000D+00
 3 09  7 30  0  0  0.0 4.267254844308D-04 5.115907697473D-12 0.000000000000D+00
    1.160000000000D+02-1.859375000000D+01 5.598090325789D-09 2.188421888076D+00
   -1.097097992897D-06 1.216260250658D-02 7.255002856255D-06 5.153640419006D+03
    3.456000000000D+05-1.490116119385D-07-2.687174308922D+00-2.514570951462D-07
    9.266463900845D-01 2.225937500000D+02 9.190516347839D-01-8.278559120931D-09
    1.535778257043D-11 1.000000000000D+00 1.542000000000D+03 0.000000000000D+00
    4.000000000000D+00 0.000000000000D+00-4.190951585770D-09 1.160000000000D+02
    3.384180000000D+05 4.000000000000D+00
 7 09  7 30  0  0  0.0 1.433864235878D-05-6.821210263297D-13 0.000000000000D+00
    8.600000000000D+01-7.843750000000D+01 4.164459180726D-09 8.062869453619D-01
   -4.002824425697D-06 2.915440942161D-03 7.452443242073D-06 5.153663024902D+03
    3.456000000000D+05 6.705522537231D-08 1.617308815267D+00 4.656612873077D-08
    9.679924692518D-01 2.399062500000D+02 2.892809834924D+00-7.932473276495D-09
    2.139374827835D-10 1.000000000000D+00 1.542000000000D+03 0.000000000000D+00
    2.000000000000D+00 0.000000000000D+00-1.071020960808D-08 8.600000000000D+01
    3.384180000000D+05 4.000000000000D+00
18 09  7 30  0  0  0.0 1.006294041872D-06 3.069544618484D-12 0.000000000000D+00
    3.400000000000D+01 6.993750000000D+01 4.765555647378D-09-1.428855126054D+00
    3.619119524956D-06 1.075222413056D-02 5.485489964485D-06 5.153616476059D+03
    3.456000000000D+05 2.775341272354D-07-4.492231246549D-01-1.005828380585D-07
    9.415618932036D-01 2.660937500000D+02-2.399340796849D+00-8.164625803722D-09
   -1.378628853997D-10 1.000000000000D+00 1.542000000000D+03 0.000000000000D+00
    2.000000000000D+00 0.000000000000D+00-1.071020960808D-08 3.400000000000D+01
    3.384180000000D+05 4.000000000000D+00
22 09  7 30  0  0  0.0 1.943935640156D-04-7.958078640513D-13 0.000000000000D+00
    1.040000000000D+02 7.196875000000D+01 4.784127849557D-09-2.453857533336D+00
    3.768131136894D-06 5.223952350207D-03 5.649402737618D-06 5.153661493301D+03
    3.456000000000D+05 1.676380634308D-08-4.436713944316D-01-5.587935447693D-08
    9.392311384726D-01 2.614375000000D+02-1.895199603151D+00-8.131052976708D-09
   -1.332198348551D-10 1.000000000000D+00 1.542000000000D+03 0.000000000000D+00
    2.000000000000D+00 0.000000000000D+00-1.769512891769D-08 1.040000000000D+02
    3.384180000000D+05 4.000000000000D+00
28 09  7 30  0  0  0.0-2.607749775052D-05-1.136868377216D-13 0.000000000000D+00
    3.800000000000D+01-3.443750000000D+01 4.422684222550D-09-2.212158790139D+00
   -1.853331923485D-06 1.497672032565D-02 7.586553692818D-06 5.153648372650D+03
    3.456000000000D+05 2.272427082062D-07 2.695116634540D+00 2.235174179077D-08
    9.674697569187D-01 2.302500000000D+02-2.021387965962D+00-7.662819187177D-09
    5.539516457381D-10 1.000000000000D+00 1.542000000000D+03 0.000000000000D+00
    2.800000000000D+00 0.000000000000D+00-1.071020960808D-08 3.800000000000D+01
    3.384180000000D+05 4.000000000000D+00
11 09  7 30  0  0  0.0-1.276284456253D-05-1.705302565824D-12 0.000000000000D+00
    8.300000000000D+01 2.865625000000D+01 6.411338486554D-09 6.326661746171D-01
    1.749023795128D-06 9.566567256115D-03 8.078292012215D-06 5.153691722870D+03
    3.456000000000D+05 2.048909664154D-08-1.741980875193D+00 7.450580596924D-08
    8.888972592817D-01 1.824687500000D+02 7.071514927267D-01-8.963587655119D-09
   -4.671623163285D-10 1.000000000000D+00 1.542000000000D+03 0.000000000000D+00
    2.000000000000D+00 0.000000000000D+00-1.164153218269D-08 8.300000000000D+01
    3.384180000000D+05 4.000000000000D+00
26 09  7 30  0  0  0.0 6.476184353232D-05-1.136868377216D-13 0.000000000000D+00
    4.000000000000D+01-1.234375000000D+01 3.670152876599D-09 4.956577654040D-01
   -4.973262548447D-07 2.026315638795D-02 4.585832357407D-06 5.154911909103D+03
    3.456000000000D+05-3.594905138016D-07 6.263091036024D-01 1.192092895508D-07
    9.926226320198D-01 3.109375000000D+02 1.028376831177D+00-8.055335537058D-09
   -1.550064566411D-10 1.000000000000D+00 1.542000000000D+03 0.000000000000D+00
    2.000000000000D+00 0.000000000000D+00-6.519258022308D-09 4.000000000000D+01
    3.416580000000D+05 4.000000000000D+00
27 09  7 30  0  0  0.0 6.983568891883D-05 3.183231456205D-12 0.000000000000D+00
    6.200000000000D+01-7.462500000000D+01 3.953736117551D-09-3.105877129598D+00
   -4.071742296219D-06 2.130477700848D-02 6.232410669327D-06 5.153763952255D+03
    3.456000000000D+05 3.520399332047D-07 1.559504645845D+00 1.303851604462D-08
    9.749321751870D-01 2.627500000000D+02-1.566512411118D+00-7.504241153194D-09
    1.696499237431D-10 1.000000000000D+00 1.542000000000D+03 0.000000000000D+00
    2.000000000000D+00 0.000000000000D+00-4.190951585770D-09 6.200000000000D+01
    3.417180000000D+05 4.000000000000D+00
17 09  7 30  0  0  0.0 7.370579987764D-05 2.501110429876D-12 0.000000000000D+00
    7.000000000000D+01-1.046875000000D+01 4.866274128422D-09-2.752308117778D+00
   -5.308538675308D-07 4.587241215631D-03 7.309019565582D-06 5.153707620621D+03
    3.456000000000D+05-2.235174179077D-08-2.554061700293D+00-1.545995473862D-07
    9.599253113708D-01 2.365312500000D+02-2.634367489603D+00-7.968189049915D-09
   -1.189335254873D-10 1.000000000000D+00 1.542000000000D+03 0.000000000000D+00
    2.000000000000D+00 0.000000000000D+00-1.024454832077D-08 7.000000000000D+01
    3.427080000000D+05 4.000000000000D+00
 9 09  7 30  0  0  0.0 6.919121369720D-05 2.046363078989D-12 0.000000000000D+00
    4.900000000000D+01-6.237500000000D+01 4.091599002950D-09-1.523991412702D-01
   -3.464519977570D-06 2.075121796224D-02 7.065013051033D-06 5.153631191254D+03
    3.456000000000D+05-3.222376108170D-07 1.583734447434D+00 1.378357410431D-07
    9.768817724641D-01 2.585937500000D+02 1.498550714321D+00-8.193198422458D-09
    2.107230631757D-10 1.000000000000D+00 1.542000000000D+03 0.000000000000D+00
    2.800000000000D+00 0.000000000000D+00-5.587935447693D-09 4.900000000000D+01
    3.439680000000D+05 4.000000000000D+00
32 09  7 30  0  0  0.0 2.238536253572D-04-6.366462912410D-12 0.000000000000D+00
    7.900000000000D+01 7.293750000000D+01 4.394468761549D-09 1.538974166166D+00
    3.499910235405D-06 1.323879824486D-02 4.937872290611D-06 5.153766159058D+03
    3.456000000000D+05 3.501772880554D-07-3.922280396322D-01-1.527369022369D-07
    9.632825737743D-01 2.802187500000D+02-1.137980989956D+00-8.026762918323D-09
   -1.357199389945D-10 1.000000000000D+00 1.542000000000D+03 0.000000000000D+00
    2.000000000000D+00 0.000000000000D+00-3.259629011154D-09 7.900000000000D+01
    3.442380000000D+05 4.000000000000D+00
14 09  7 30  0  0  0.0-7.272511720657D-05 5.570655048359D-12 0.000000000000D+00
    1.020000000000D+02-1.109375000000D+01 3.645866150674D-09 3.027358144041D+00
   -5.345791578293D-07 4.682502942160D-03 4.321336746216D-06 5.153631998062D+03
    3.456000000000D+05 2.048909664154D-08 6.089143712705D-01-2.793967723846D-08
    9.882773045052D-01 3.095000000000D+02-2.169677859586D+00-7.752822936194D-09
    8.571785620706D-12 1.000000000000D+00 1.542000000000D+03 0.000000000000D+00
    2.000000000000D+00 0.000000000000D+00-9.313225746155D-09 1.020000000000D+02
    3.450780000000D+05 4.000000000000D+00
